     2.10           NAVIGATION DATA                         RINEX VERSION / TYPE
SPIDER V4,0,0,3554                      2015 04 15 04:40    PGM / RUN BY / DATE 
   1.9558D-08 -7.4506D-09 -5.9605D-08  1.1921D-07           ION ALPHA           
   1.3722D+05 -1.3107D+05  6.5536D+04 -1.9661D+05           ION BETA            
   -9.313225746155D-10-2.664535259100D-15   503808     1829 DELTA-UTC: A0,A1,T,W
    16                                                      LEAP SECONDS        
                                                            END OF HEADER       
 5 15 01 28 14 00  0.0-2.867262810469D-04 5.229594535194D-12 0.000000000000D+00
    9.300000000000D+01-1.759375000000D+01 5.107355427469D-09 1.228363180520D+00
   -6.351619958878D-07 4.040169762447D-03 8.296221494675D-06 5.153757991791D+03
    3.096000000000D+05-3.166496753693D-08 1.237278216461D+00 3.166496753693D-08
    9.463981570077D-01 2.122500000000D+02 4.241314697496D-01-8.256415107155D-09
   -3.607293075358D-10 1.000000000000D+00 1.829000000000D+03 0.000000000000D+00
    2.000000000000D+00 0.000000000000D+00-1.071020960808D-08 9.300000000000D+01
    3.096000000000D+05 0.000000000000D+00
13 15 01 28 13 59 44.0-8.299574255943D-05-3.524291969370D-12 0.000000000000D+00
    2.400000000000D+01 6.718750000000D+01 4.149458554537D-09-1.543492242362D+00
    3.518536686897D-06 5.352417472750D-03 9.134411811829D-06 5.153690376282D+03
    3.095840000000D+05-1.229345798492D-07 2.400559967907D+00 2.235174179077D-08
    9.751345187011D-01 2.087812500000D+02 2.068517309935D+00-7.877114072130D-09
   -1.278624706114D-10 1.000000000000D+00 1.829000000000D+03 0.000000000000D+00
    2.000000000000D+00 0.000000000000D+00-1.164153218269D-08 2.400000000000D+01
    3.095840000000D+05 0.000000000000D+00
28 15 01 28 14 00  0.0 4.156050272286D-04 2.614797267597D-12 0.000000000000D+00
    5.100000000000D+01-7.603125000000D+01 3.891947653045D-09 1.277670626647D+00
   -4.161149263382D-06 1.974211400375D-02 6.122514605522D-06 5.153692438126D+03
    3.096000000000D+05-2.514570951462D-07-1.829988019718D+00-3.613531589508D-07
    9.881282887438D-01 2.799687500000D+02-1.675833318236D+00-8.111766369723D-09
   -1.039329039498D-10 1.000000000000D+00 1.829000000000D+03 0.000000000000D+00
    2.000000000000D+00 0.000000000000D+00-1.117587089539D-08 5.100000000000D+01
    3.096000000000D+05 0.000000000000D+00
13 15 01 28 15 59 44.0-8.302135393023D-05-3.524291969370D-12 0.000000000000D+00
    2.500000000000D+01 7.768750000000D+01 4.154458554950D-09-4.930368920741D-01
    4.155561327934D-06 5.353596992791D-03 9.661540389061D-06 5.153694034576D+03
    3.167840000000D+05-2.980232238770D-08 2.400502561539D+00-3.911554813385D-08
    9.751336906895D-01 1.993125000000D+02 2.068229438378D+00-7.939616075703D-09
   -6.678849834296D-11 1.000000000000D+00 1.829000000000D+03 0.000000000000D+00
    2.000000000000D+00 0.000000000000D+00-1.164153218269D-08 2.500000000000D+01
    3.167840000000D+05 0.000000000000D+00
 2 15 01 28 16 00  0.0 5.445801652968D-04 2.273736754432D-12 0.000000000000D+00
    9.000000000000D+01-4.875000000000D+00 5.415582648993D-09-5.303276409035D-02
   -1.676380634308D-07 1.427665515803D-02 7.104128599167D-06 5.153750644684D+03
    3.168000000000D+05-3.725290298462D-09 1.673737170214D-01 1.937150955200D-07
    9.407009644511D-01 2.353125000000D+02-2.331770053205D+00-8.616787283700D-09
    2.853690339588D-10 1.000000000000D+00 1.829000000000D+03 0.000000000000D+00
    2.000000000000D+00 0.000000000000D+00-2.048909664154D-08 9.000000000000D+01
    3.168000000000D+05 0.000000000000D+00
 5 15 01 28 16 00  0.0-2.866890281439D-04 5.229594535194D-12 0.000000000000D+00
    9.500000000000D+01-1.534375000000D+01 5.147000159411D-09 2.278541407310D+00
   -7.767230272293D-07 4.040372441523D-03 8.482486009598D-06 5.153757585526D+03
    3.168000000000D+05-1.024454832077D-07 1.237218579143D+00-3.352761268616D-08
    9.463958894847D-01 2.104062500000D+02 4.240871506464D-01-8.197127421283D-09
   -3.100129042366D-10 1.000000000000D+00 1.829000000000D+03 0.000000000000D+00
    2.000000000000D+00 0.000000000000D+00-1.071020960808D-08 9.500000000000D+01
    3.168000000000D+05 0.000000000000D+00
 6 15 01 28 16 00  0.0 6.487825885415D-05 1.170974428533D-11 0.000000000000D+00
    9.900000000000D+01-7.781250000000D+00 4.810914777664D-09 2.012554066384D+00
   -5.681067705154D-07 4.119387594983D-04 7.232651114464D-06 5.153679826736D+03
    3.168000000000D+05 1.490116119385D-08 1.938109712906D-01-1.490116119385D-08
    9.620019074923D-01 2.406250000000D+02 2.508648723495D+00-8.108909099747D-09
    2.753686167978D-10 1.000000000000D+00 1.829000000000D+03 0.000000000000D+00
    2.000000000000D+00 0.000000000000D+00 4.656612873077D-09 9.900000000000D+01
    3.168000000000D+05 0.000000000000D+00
 7 15 01 28 16 00  0.0 4.354952834547D-04 3.296918293927D-12 0.000000000000D+00
    4.200000000000D+01 5.075000000000D+01 4.329466118946D-09-1.228292957526D+00
    2.553686499596D-06 7.987981080078D-03 4.276633262634D-06 5.153738674164D+03
    3.168000000000D+05 1.266598701477D-07-2.920829717859D+00-1.769512891769D-07
    9.716951690384D-01 3.034375000000D+02-2.752083668109D+00-8.161411102492D-09
   -2.214377986531D-11 1.000000000000D+00 1.829000000000D+03 0.000000000000D+00
    2.000000000000D+00 0.000000000000D+00-1.117587089539D-08 4.200000000000D+01
    3.168000000000D+05 0.000000000000D+00
 9 15 01 28 16 00  0.0-6.935605779290D-05-1.227817847393D-11 0.000000000000D+00
    3.100000000000D+01 8.034375000000D+01 4.430898759011D-09 1.110630454948D+00
    3.997236490250D-06 3.280040109530D-04 9.436160326004D-06 5.153669889450D+03
    3.168000000000D+05-1.117587089539D-08 2.287246230701D+00 3.725290298462D-09
    9.582566426412D-01 1.937812500000D+02 2.257768943425D+00-8.002833062903D-09
   -1.753644451874D-10 1.000000000000D+00 1.829000000000D+03 0.000000000000D+00
    2.000000000000D+00 0.000000000000D+00 4.656612873077D-10 3.100000000000D+01
    3.168000000000D+05 0.000000000000D+00
10 15 01 28 16 00  0.0-1.607988961041D-04-1.705302565824D-12 0.000000000000D+00
    8.000000000000D+01-1.475000000000D+01 5.133070857255D-09 2.627854636831D+00
   -9.313225746155D-07 1.453599683009D-02 8.627772331238D-06 5.153653640747D+03
    3.168000000000D+05 1.862645149231D-08 1.253017137650D+00-2.421438694000D-07
    9.411808366911D-01 2.005312500000D+02 9.195483583772D-01-8.003190110628D-09
   -3.328710085349D-10 1.000000000000D+00 1.829000000000D+03 0.000000000000D+00
    2.000000000000D+00 0.000000000000D+00-3.259629011154D-09 8.000000000000D+01
    3.168000000000D+05 0.000000000000D+00
20 15 01 28 16 00  0.0 2.836291678250D-04 4.092726157978D-12 0.000000000000D+00
    8.300000000000D+01-8.812500000000D+00 5.514515510896D-09 3.029575382181D+00
   -5.327165126801D-07 5.832849070430D-03 8.082017302513D-06 5.155768848419D+03
    3.168000000000D+05 1.024454832077D-07 1.173865486838D+00-1.247972249985D-07
    9.261564003030D-01 2.027187500000D+02 1.239095633238D+00-8.357847747220D-09
   -2.925121811437D-10 1.000000000000D+00 1.829000000000D+03 0.000000000000D+00
    2.000000000000D+00 0.000000000000D+00-8.381903171539D-09 8.300000000000D+01
    3.168000000000D+05 0.000000000000D+00
28 15 01 28 16 00  0.0 4.156241193414D-04 2.614797267597D-12 0.000000000000D+00
    5.200000000000D+01-8.025000000000D+01 3.714440532931D-09 2.327861611546D+00
   -4.205852746964D-06 1.974247768521D-02 5.885958671570D-06 5.153691335678D+03
    3.168000000000D+05 2.775341272354D-07-1.830043828580D+00-1.136213541031D-07
    9.881298716211D-01 2.765937500000D+02-1.675860341259D+00-7.563886406103D-09
   -1.650068692793D-10 1.000000000000D+00 1.829000000000D+03 0.000000000000D+00
    2.000000000000D+00 0.000000000000D+00-1.117587089539D-08 5.200000000000D+01
    3.168000000000D+05 0.000000000000D+00
30 15 01 28 16 00  0.0-8.605886250734D-05 5.684341886081D-13 0.000000000000D+00
    1.200000000000D+02 5.218750000000D+01 4.668051722945D-09-1.263370818934D+00
    2.620741724968D-06 9.856594260782D-04 3.926455974579D-06 5.153615806580D+03
    3.168000000000D+05-8.195638656616D-08-2.869845006895D+00-5.401670932770D-08
    9.573784061049D-01 3.030312500000D+02 3.067074207700D+00-8.341776158716D-09
   -3.250135230393D-11 1.000000000000D+00 1.829000000000D+03 0.000000000000D+00
    2.800000000000D+00 0.000000000000D+00 3.259629011154D-09 1.200000000000D+02
    3.168000000000D+05 0.000000000000D+00
28 15 01 28 15 59 44.0 4.156203940511D-04 2.614797267597D-12 0.000000000000D+00
    0.000000000000D+00-8.025000000000D+01 3.714440532931D-09 2.325527714467D+00
   -4.205852746964D-06 1.974247535691D-02 5.885958671570D-06 5.153691347122D+03
    3.167840000000D+05 2.775341272354D-07-1.830043737879D+00-1.136213541031D-07
    9.881298526032D-01 2.765937500000D+02-1.675860181800D+00-7.563886406103D-09
   -1.650068692793D-10 1.000000000000D+00 1.829000000000D+03 0.000000000000D+00
    2.000000000000D+00 0.000000000000D+00-1.117587089539D-08 0.000000000000D+00
    3.167840000000D+05 0.000000000000D+00
15 15 01 28 16 00  0.0-2.289935946465D-04-2.273736754432D-12 0.000000000000D+00
    3.400000000000D+01 5.850000000000D+01 5.135571079506D-09 7.039866976774D-01
    3.306195139885D-06 7.048971485347D-03 9.054318070412D-06 5.153585756302D+03
    3.168000000000D+05 1.676380634308D-08 2.246549611089D+00 1.136213541031D-07
    9.341552896489D-01 1.868750000000D+02 3.672948114403D-01-8.337132761937D-09
   -2.517961950055D-10 1.000000000000D+00 1.829000000000D+03 0.000000000000D+00
    2.000000000000D+00 0.000000000000D+00-1.071020960808D-08 3.400000000000D+01
    3.168000000000D+05 0.000000000000D+00
